CTC1_L_00533008-07
1 10062U 25232ZX  26075.70038194  .00000000  00000+0  00000-0 0  9994
2 10062  98.8000  84.0000 0000000   0.0000 312.0000 14.15679949    10
CTC1_L_00533008-08
1 10063U 23681HD  26075.70038194  .00000000  00000+0  00000-0 0  9991
2 10063  98.8000  84.0000 0000000   0.0000 357.0000 14.15679949    10
CTC1_L_00533009-01
1 10064U 26868CD  26075.70038194  .00000000  00000+0  00000-0 0  9992
2 10064  98.8000  96.0000 0000000   0.0000  48.0000 14.15679949    11
CTC1_L_00533009-02
1 10065U 22018WR  26075.70038194  .00000000  00000+0  00000-0 0  9996
2 10065  98.8000  96.0000 0000000   0.0000  93.0000 14.15679949    12
CTC1_L_00533009-03
1 10066U 25984CC  26075.70038194  .00000000  00000+0  00000-0 0  9992
2 10066  98.8000  96.0000 0000000   0.0000 138.0000 14.15679949    13
CTC1_L_00533009-04
1 10067U 22444ML  26075.70038194  .00000000  00000+0  00000-0 0  9991
2 10067  98.8000  96.0000 0000000   0.0000 183.0000 14.15679949    14
CTC1_L_00533009-05
1 10068U 24968PT  26075.70038194  .00000000  00000+0  00000-0 0  9995
2 10068  98.8000  96.0000 0000000   0.0000 228.0000 14.15679949    15
CTC1_L_00533009-06
1 10069U 25187ZR  26075.70038194  .00000000  00000+0  00000-0 0  9990
2 10069  98.8000  96.0000 0000000   0.0000 273.0000 14.15679949    16
CTC1_L_00533009-07
1 10070U 25932GL  26075.70038194  .00000000  00000+0  00000-0 0  9990
2 10070  98.8000  96.0000 0000000   0.0000 318.0000 14.15679949    18
CTC1_L_00533009-08
1 10071U 26848MV  26075.70038194  .00000000  00000+0  00000-0 0  9998
2 10071  98.8000  96.0000 0000000   0.0000   3.0000 14.15679949    10
CTC1_L_00533010-01
1 10072U 23338RO  26075.70038194  .00000000  00000+0  00000-0 0  9990
2 10072  98.8000 108.0000 0000000   0.0000  54.0000 14.15679949    11
CTC1_L_00533010-02
1 10073U 26326KO  26075.70038194  .00000000  00000+0  00000-0 0  9991
2 10073  98.8000 108.0000 0000000   0.0000  99.0000 14.15679949    11
CTC1_L_00533010-03
1 10074U 22400YI  26075.70038194  .00000000  00000+0  00000-0 0  9991
2 10074  98.8000 108.0000 0000000   0.0000 144.0000 14.15679949    13
CTC1_L_00533010-04
1 10075U 26666HL  26075.70038194  .00000000  00000+0  00000-0 0  9990
2 10075  98.8000 108.0000 0000000   0.0000 189.0000 14.15679949    13
CTC1_L_00533010-05
1 10076U 25900XH  26075.70038194  .00000000  00000+0  00000-0 0  9991
2 10076  98.8000 108.0000 0000000   0.0000 234.0000 14.15679949    15
CTC1_L_00533010-06
1 10077U 24624LY  26075.70038194  .00000000  00000+0  00000-0 0  9994
2 10077  98.8000 108.0000 0000000   0.0000 279.0000 14.15679949    15
CTC1_L_00533010-07
1 10078U 22968RO  26075.70038194  .00000000  00000+0  00000-0 0  9994
2 10078  98.8000 108.0000 0000000   0.0000 324.0000 14.15679949    17
CTC1_L_00533010-08
1 10079U 26091EF  26075.70038194  .00000000  00000+0  00000-0 0  9996
2 10079  98.8000 108.0000 0000000   0.0000   9.0000 14.15679949    18
CTC1_L_00533011-01
1 10080U 25373DO  26075.70038194  .00000000  00000+0  00000-0 0  9990
2 10080  98.8000 120.0000 0000000   0.0000  60.0000 14.15679949    11
CTC1_L_00533011-02
1 10081U 26020AX  26075.70038194  .00000000  00000+0  00000-0 0  9991
2 10081  98.8000 120.0000 0000000   0.0000 105.0000 14.15679949    12
CTC1_L_00533011-03
1 10082U 22006LO  26075.70038194  .00000000  00000+0  00000-0 0  9992
2 10082  98.8000 120.0000 0000000   0.0000 150.0000 14.15679949    13
CTC1_L_00533011-04
1 10083U 25664FN  26075.70038194  .00000000  00000+0  00000-0 0  9996
2 10083  98.8000 120.0000 0000000   0.0000 195.0000 14.15679949    13
CTC1_L_00533011-05
1 10084U 22905F   26075.70038194  .00000000  00000+0  00000-0 0  9992
2 10084  98.8000 120.0000 0000000   0.0000 240.0000 14.15679949    15
CTC1_L_00533011-06
1 10085U 26082HG  26075.70038194  .00000000  00000+0  00000-0 0  9993
2 10085  98.8000 120.0000 0000000   0.0000 285.0000 14.15679949    15
CTC1_L_00533011-07
1 10086U 26406RA  26075.70038194  .00000000  00000+0  00000-0 0  9994
2 10086  98.8000 120.0000 0000000   0.0000 330.0000 14.15679949    17
CTC1_L_00533011-08
1 10087U 25302KB  26075.70038194  .00000000  00000+0  00000-0 0  9999
2 10087  98.8000 120.0000 0000000   0.0000  15.0000 14.15679949    18
CTC1_L_00533012-01
1 10088U 22995MB  26075.70038194  .00000000  00000+0  00000-0 0  9995
2 10088  98.8000 132.0000 0000000   0.0000  66.0000 14.15679949    18
CTC1_L_00533012-02
1 10089U 23432WE  26075.70038194  .00000000  00000+0  00000-0 0  9993
2 10089  98.8000 132.0000 0000000   0.0000 111.0000 14.15679949    10
CTC1_L_00533012-03
1 10090U 22089BY  26075.70038194  .00000000  00000+0  00000-0 0  9992
2 10090  98.8000 132.0000 0000000   0.0000 156.0000 14.15679949    11
CTC1_L_00533012-04
1 10091U 22640BJ  26075.70038194  .00000000  00000+0  00000-0 0  9996
2 10091  98.8000 132.0000 0000000   0.0000 201.0000 14.15679949    13
CTC1_L_00533012-05
1 10092U 26149GO  26075.70038194  .00000000  00000+0  00000-0 0  9995
2 10092  98.8000 132.0000 0000000   0.0000 246.0000 14.15679949    13
CTC1_L_00533012-06
1 10093U 22049RU  26075.70038194  .00000000  00000+0  00000-0 0  9991
2 10093  98.8000 132.0000 0000000   0.0000 291.0000 14.15679949    14
CTC1_L_00533012-07
1 10094U 22819SU  26075.70038194  .00000000  00000+0  00000-0 0  9997
2 10094  98.8000 132.0000 0000000   0.0000 336.0000 14.15679949    15
CTC1_L_00533012-08
1 10095U 26383VO  26075.70038194  .00000000  00000+0  00000-0 0  9998
2 10095  98.8000 132.0000 0000000   0.0000  21.0000 14.15679949    17
CTC1_L_00533013-01
1 10096U 25132KD  26075.70038194  .00000000  00000+0  00000-0 0  9990
2 10096  98.8000 144.0000 0000000   0.0000  72.0000 14.15679949    17
CTC1_L_00533013-02
1 10097U 26015YF  26075.70038194  .00000000  00000+0  00000-0 0  9992
2 10097  98.8000 144.0000 0000000   0.0000 117.0000 14.15679949    18
CTC1_L_00533013-03
1 10098U 25958LN  26075.70038194  .00000000  00000+0  00000-0 0  9998
2 10098  98.8000 144.0000 0000000   0.0000 162.0000 14.15679949    19
CTC1_L_00533013-04
1 10099U 24351OR  26075.70038194  .00000000  00000+0  00000-0 0  9995
2 10099  98.8000 144.0000 0000000   0.0000 207.0000 14.15679949    10
CTC1_L_00533013-05
1 10100U 26404BU  26075.70038194  .00000000  00000+0  00000-0 0  9999
2 10100  98.8000 144.0000 0000000   0.0000 252.0000 14.15679949    13
CTC1_L_00533013-06
1 10101U 23691PJ  26075.70038194  .00000000  00000+0  00000-0 0  9995
2 10101  98.8000 144.0000 0000000   0.0000 297.0000 14.15679949    13
CTC1_L_00533013-07
1 10102U 23616IL  26075.70038194  .00000000  00000+0  00000-0 0  9993
2 10102  98.8000 144.0000 0000000   0.0000 342.0000 14.15679949    15
CTC1_L_00533013-08
1 10103U 26063DI  26075.70038194  .00000000  00000+0  00000-0 0  9993
2 10103  98.8000 144.0000 0000000   0.0000  27.0000 14.15679949    16
CTC1_L_00533014-01
1 10104U 26637PW  26075.70038194  .00000000  00000+0  00000-0 0  9991
2 10104  98.8000 156.0000 0000000   0.0000  78.0000 14.15679949    16
CTC1_L_00533014-02
1 10105U 25218TJ  26075.70038194  .00000000  00000+0  00000-0 0  9996
2 10105  98.8000 156.0000 0000000   0.0000 123.0000 14.15679949    18
CTC1_L_00533014-03
1 10106U 24094FT  26075.70038194  .00000000  00000+0  00000-0 0  9998
2 10106  98.8000 156.0000 0000000   0.0000 168.0000 14.15679949    18
CTC1_L_00533014-04
1 10107U 26782GC  26075.70038194  .00000000  00000+0  00000-0 0  9995
2 10107  98.8000 156.0000 0000000   0.0000 213.0000 14.15679949    10
CTC1_L_00533014-05
1 10108U 24774XB  26075.70038194  .00000000  00000+0  00000-0 0  9995
2 10108  98.8000 156.0000 0000000   0.0000 258.0000 14.15679949    10
CTC1_L_00533014-06
1 10109U 22172ZV  26075.70038194  .00000000  00000+0  00000-0 0  9996
2 10109  98.8000 156.0000 0000000   0.0000 303.0000 14.15679949    12
CTC1_L_00533014-07
1 10110U 25131KN  26075.70038194  .00000000  00000+0  00000-0 0  9996
2 10110  98.8000 156.0000 0000000   0.0000 348.0000 14.15679949    13
CTC1_L_00533014-08
1 10111U 22754AX  26075.70038194  .00000000  00000+0  00000-0 0  9995
2 10111  98.8000 156.0000 0000000   0.0000  33.0000 14.15679949    15
CTC1_L_00533015-01
1 10112U 22291XW  26075.70038194  .00000000  00000+0  00000-0 0  9992
2 10112  98.8000 168.0000 0000000   0.0000  84.0000 14.15679949    15
CTC1_L_00533015-02
1 10113U 23515RR  26075.70038194  .00000000  00000+0  00000-0 0  9993
2 10113  98.8000 168.0000 0000000   0.0000 129.0000 14.15679949    16
CTC1_L_00533015-03
1 10114U 24508UA  26075.70038194  .00000000  00000+0  00000-0 0  9997
2 10114  98.8000 168.0000 0000000   0.0000 174.0000 14.15679949    17
CTC1_L_00533015-04
1 10115U 25355TR  26075.70038194  .00000000  00000+0  00000-0 0  9999
2 10115  98.8000 168.0000 0000000   0.0000 219.0000 14.15679949    18
CTC1_L_00533015-05
1 10116U 23134JA  26075.70038194  .00000000  00000+0  00000-0 0  9993
2 10116  98.8000 168.0000 0000000   0.0000 264.0000 14.15679949    19
CTC1_L_00533015-06
1 10117U 25442JJ  26075.70038194  .00000000  00000+0  00000-0 0  9998
2 10117  98.8000 168.0000 0000000   0.0000 309.0000 14.15679949    10
CTC1_L_00533015-07
1 10118U 22328EH  26075.70038194  .00000000  00000+0  00000-0 0  9999
2 10118  98.8000 168.0000 0000000   0.0000 354.0000 14.15679949    11
CTC1_L_00533015-08
1 10119U 24070IC  26075.70038194  .00000000  00000+0  00000-0 0  9996
2 10119  98.8000 168.0000 0000000   0.0000  39.0000 14.15679949    12
CTC1_L_00533016-01
1 10120U 25575TD  26075.70038194  .00000000  00000+0  00000-0 0  9999
2 10120  98.8000 180.0000 0000000   0.0000  90.0000 14.15679949    15
CTC1_L_00533016-02
1 10121U 22296JF  26075.70038194  .00000000  00000+0  00000-0 0  9997
2 10121  98.8000 180.0000 0000000   0.0000 135.0000 14.15679949    16
CTC1_L_00533016-03
1 10122U 24926K   26075.70038194  .00000000  00000+0  00000-0 0  9990
2 10122  98.8000 180.0000 0000000   0.0000 180.0000 14.15679949    17
CTC1_L_00533016-04
1 10123U 24107QH  26075.70038194  .00000000  00000+0  00000-0 0  9992
2 10123  98.8000 180.0000 0000000   0.0000 225.0000 14.15679949    18
